SNUSAT-2                
1 43782U 18099AA  26198.57480280  .00004170  00000+0  18405-3 0  9993
2 43782  97.4039 251.4975 0010508 179.6648 180.4597 15.22260559417650
SNUGLITE                
1 43784U 18099AC  26198.60511860  .00005959  00000+0  22226-3 0  9990
2 43784  97.3845 252.5957 0003851 153.6071 206.5365 15.27789065417963
ITASAT                  
1 43786U 18099AE  26198.58277241  .00002956  00000+0  14271-3 0  9996
2 43786  97.4008 249.4921 0010994 240.9559 119.0575 15.19397594417526
EAGLET-I                
1 43790U 18099AJ  26198.60657544  .00002076  00000+0  12067-3 0  9996
2 43790  97.4213 247.4708 0009747 234.6791 125.3530 15.13144271416933
ESEO                    
1 43792U 18099AL  26198.57925733  .00001199  00000+0  90107-4 0  9999
2 43792  97.3961 234.6647 0011022 224.2771 135.7575 15.04328478416371
THEA                    
1 43796U 18099AQ  26198.43937611  .00009864  00000+0  28356-3 0  9999
2 43796  97.4424 268.4450 0008236 167.0583 193.0874 15.35984185417338
ASTROCAST 0.1           
1 43798U 18099AS  26198.65667510  .00020651  00000+0  34964-3 0  9992
2 43798  97.4367 278.1489 0005506 122.9261 237.2521 15.51569804419153
JY1SAT (JO-97)          
1 43803U 18099AX  26198.62130861  .00009074  00000+0  27313-3 0  9996
2 43803  97.4108 261.5784 0007057 150.8964 209.2673 15.34566538418293
SUOMI-100               
1 43804U 18099AY  26198.44633546  .00006886  00000+0  24635-3 0  9997
2 43804  97.4165 258.7381 0010762 164.6319 195.5250 15.29063549418041
CENTAURI-1              
1 43809U 18099BD  26198.09632026  .00002877  00000+0  15026-3 0  9995
2 43809  97.4201 249.1761 0013137 217.7494 142.2819 15.16635309417039
GLOBAL-2                
1 43812U 18099BG  26198.38384900  .00001747  00000+0  11480-3 0  9991
2 43812  97.3548 233.6418 0007287  61.1366 299.0593 15.08833068416460
SEAHAWK-1               
1 43820U 18099BQ  26198.68672338  .00004558  00000+0  19517-3 0  9990
2 43820  97.3937 250.7139 0008129 189.4192 170.6894 15.23261941417177
SAUDISAT 5A             
1 43831U 18102A   26198.74332594  .00002727  00000+0  10137-3 0  9996
2 43831  97.3047 259.7383 0010203  35.5914 324.6005 15.28335487420340
SAUDISAT 5B             
1 43833U 18102C   26198.69172837  .00002604  00000+0  96185-4 0  9996
2 43833  97.3157 262.8127 0010994  37.1178 323.0820 15.28577533420452
ISAT                    
1 43879U 18111D   26198.27965877  .00081370  00000+0  63993-3 0  9991
2 43879  97.5850 135.9513 0008048 135.3062 224.8850 15.71202408415889
UWE-4                   
1 43880U 18111E   26198.74427190  .00018314  00000+0  35266-3 0  9996
2 43880  97.5840 128.5854 0006528 184.7413 175.3776 15.47920542415500
D-STAR ONE (SPARROW)    
1 43881U 18111F   26198.59738130  .00195173  00000+0  78173-3 0  9992
2 43881  97.6095 142.5856 0008483 138.5713 221.6202 15.85963600416171
JILIN-1 09              
1 43943U 19005B   26198.71291566  .00002157  00000+0  10115-3 0  9996
2 43943  97.4746 293.4205 0002086  30.3779 329.7577 15.20752758413787
JILIN-1 10              
1 43946U 19005E   26198.68591661  .00003002  00000+0  11946-3 0  9997
2 43946  97.4798 297.4981 0008805 161.6341 198.5217 15.26022318413961
EGYPTSAT-A (MISRSAT-A)  
1 44047U 19008A   26198.72559888  .00000031  00000+0  12640-4 0  9995
2 44047  98.0178 263.0761 0001751  92.0777 268.0631 14.72337192397739
EMISAT                  
1 44078U 19018A   26198.70959265  .00000090  00000+0  39513-4 0  9994
2 44078  98.4629 257.3392 0019439 124.0032 236.3008 14.43650091384462
JILIN-1 GAOFEN 3A       
1 44312U 19032C   26198.45195490  .00006350  00000+0  20342-3 0  9999
2 44312  44.9729 190.2899 0004817 121.7177 238.4178 15.33218894392488
WT 1B                   
1 44316U 19032G   26198.60971487  .00004793  00000+0  18409-3 0  9998
2 44316  44.9732 254.8080 0008214  51.5021 308.6598 15.27751929391735
PROX-1                  
1 44339U 19036A   26198.50844025  .00005675  00000+0  52804-3 0  9990
2 44339  23.9944 271.5966 0006162  33.6915 326.3976 14.91274149378000
NPSAT1                  
1 44340U 19036B   26198.70227464  .00002676  00000+0  35412-3 0  9990
2 44340  24.0002  18.9709 0007359 195.5937 164.4333 14.74834048377006
FORMOSAT 7-3            
1 44343U 19036E   26198.71459500  .00002420  00000+0  12441-3 0  9996
2 44343  23.9999 328.4011 0000242 329.4553  30.5937 15.10005458387867
FORMOSAT 7-1            
1 44349U 19036L   26198.31726257  .00001296  00000+0  85096-4 0  9991
2 44349  23.9963 189.2464 0000863 150.1510 209.9040 14.96616469389176
FORMOSAT 7-4            
1 44350U 19036M   26198.27318281  .00001266  00000+0  82482-4 0  9995
2 44350  23.9972 251.6550 0001132 164.6120 195.4415 14.96613977388585
FORMOSAT 7-2            
1 44351U 19036N   26198.49556829  .00001347  00000+0  89426-4 0  9997
2 44351  23.9986 304.4702 0000613 149.3256 210.7280 14.96614279388138
