OBJECT_NAME,OBJECT_ID,EPOCH,MEAN_MOTION,ECCENTRICITY,INCLINATION,RA_OF_ASC_NODE,ARG_OF_PERICENTER,MEAN_ANOMALY,EPHEMERIS_TYPE,CLASSIFICATION_TYPE,NORAD_CAT_ID,ELEMENT_SET_NO,REV_AT_EPOCH,BSTAR,MEAN_MOTION_DOT,MEAN_MOTION_DDOT
SNUSAT-2,2018-099AA,2026-07-17T13:47:42.961920,15.22260559,.0010508,97.4039,251.4975,179.6648,180.4597,0,U,43782,999,41765,.18405E-3,.417E-4,0
SNUGLITE,2018-099AC,2026-07-17T14:31:22.247040,15.27789065,.0003851,97.3845,252.5957,153.6071,206.5365,0,U,43784,999,41796,.22226E-3,.5959E-4,0
ITASAT,2018-099AE,2026-07-17T13:59:11.536224,15.19397594,.00109949,97.4008,249.4921,240.9559,119.0575,0,U,43786,999,41752,.14271187E-3,.2956E-4,0
EAGLET-I,2018-099AJ,2026-07-17T14:33:28.118016,15.13144271,.0009747,97.4213,247.4708,234.6791,125.3530,0,U,43790,999,41693,.12067E-3,.2076E-4,0
ESEO,2018-099AL,2026-07-17T13:54:07.833312,15.04328478,.0011022,97.3961,234.6647,224.2771,135.7575,0,U,43792,999,41637,.90107E-4,.1199E-4,0
THEA,2018-099AQ,2026-07-17T10:32:42.095904,15.35984185,.0008236,97.4424,268.4450,167.0583,193.0874,0,U,43796,999,41733,.28356E-3,.9864E-4,0
ASTROCAST 0.1,2018-099AS,2026-07-17T15:45:36.728640,15.51569804,.0005506,97.4367,278.1489,122.9261,237.2521,0,U,43798,999,41915,.34964E-3,.20651E-3,0
JY1SAT (JO-97),2018-099AX,2026-07-17T14:54:41.063904,15.34566538,.0007057,97.4108,261.5784,150.8964,209.2673,0,U,43803,999,41829,.27313E-3,.9074E-4,0
SUOMI-100,2018-099AY,2026-07-17T10:42:43.383744,15.29063549,.0010762,97.4165,258.7381,164.6319,195.5250,0,U,43804,999,41804,.24635E-3,.6886E-4,0
CENTAURI-1,2018-099BD,2026-07-17T02:18:42.070464,15.16635309,.0013137,97.4201,249.1761,217.7494,142.2819,0,U,43809,999,41703,.15026312E-3,.2877E-4,0
GLOBAL-2,2018-099BG,2026-07-17T09:12:44.553600,15.08833068,.0007287,97.3548,233.6418,61.1366,299.0593,0,U,43812,999,41646,.1148E-3,.1747E-4,0
SEAHAWK-1,2018-099BQ,2026-07-17T16:28:52.900032,15.23261941,.0008129,97.3937,250.7139,189.4192,170.6894,0,U,43820,999,41717,.19517E-3,.4558E-4,0
SAUDISAT 5A,2018-102A,2026-07-17T17:50:23.361216,15.28335487,.0010203,97.3047,259.7383,35.5914,324.6005,0,U,43831,999,42034,.10137E-3,.2727E-4,0
SAUDISAT 5B,2018-102C,2026-07-17T16:36:05.331168,15.28577533,.0010994,97.3157,262.8127,37.1178,323.0820,0,U,43833,999,42045,.96185E-4,.2604E-4,0
ISAT,2018-111D,2026-07-17T06:42:42.517728,15.71202408,.0008048,97.5850,135.9513,135.3062,224.8850,0,U,43879,999,41588,.63993E-3,.8137E-3,0
UWE-4,2018-111E,2026-07-17T17:51:45.092160,15.47920542,.0006528,97.5840,128.5854,184.7413,175.3776,0,U,43880,999,41550,.35266E-3,.18314E-3,0
D-STAR ONE (SPARROW),2018-111F,2026-07-17T14:20:13.744320,15.85963600,.0008483,97.6095,142.5856,138.5713,221.6202,0,U,43881,999,41617,.78173E-3,.195173E-2,0
JILIN-1 09,2019-005B,2026-07-17T17:06:35.913024,15.20752758,.0002086,97.4746,293.4205,30.3779,329.7577,0,U,43943,999,41378,.10115E-3,.2157E-4,0
JILIN-1 10,2019-005E,2026-07-17T16:27:43.195104,15.26022318,.0008805,97.4798,297.4981,161.6341,198.5217,0,U,43946,999,41396,.11946E-3,.3002E-4,0
EGYPTSAT-A (MISRSAT-A),2019-008A,2026-07-17T17:24:51.743232,14.72337192,.0001751,98.0178,263.0761,92.0777,268.0631,0,U,44047,999,39773,.1264E-4,.31E-6,0
EMISAT,2019-018A,2026-07-17T17:01:48.804960,14.43650091,.0019439,98.4629,257.3392,124.0032,236.3008,0,U,44078,999,38446,.39513E-4,.9E-6,0
JILIN-1 GAOFEN 3A,2019-032C,2026-07-17T10:50:48.903360,15.33218894,.0004817,44.9729,190.2899,121.7177,238.4178,0,U,44312,999,39248,.20342E-3,.635E-4,0
WT 1B,2019-032G,2026-07-17T14:37:59.364768,15.27751929,.0008214,44.9732,254.8080,51.5021,308.6598,0,U,44316,999,39173,.18409E-3,.4793E-4,0
PROX-1,2019-036A,2026-07-17T12:12:09.237600,14.91274149,.0006162,23.9944,271.5966,33.6915,326.3976,0,U,44339,999,37800,.52804E-3,.5675E-4,0
NPSAT1,2019-036B,2026-07-17T16:51:16.528896,14.74834048,.0007359,24.0002,18.9709,195.5937,164.4333,0,U,44340,999,37700,.35412E-3,.2676E-4,0
FORMOSAT 7-3,2019-036E,2026-07-17T17:09:01.008000,15.10005458,.0000242,23.9999,328.4011,329.4553,30.5937,0,U,44343,999,38786,.12441E-3,.242E-4,0
FORMOSAT 7-1,2019-036L,2026-07-17T07:36:51.486048,14.96616469,.0000863,23.9963,189.2464,150.1510,209.9040,0,U,44349,999,38917,.85096E-4,.1296E-4,0
FORMOSAT 7-4,2019-036M,2026-07-17T06:33:22.994784,14.96613977,.0001132,23.9972,251.6550,164.6120,195.4415,0,U,44350,999,38858,.82482E-4,.1266E-4,0
FORMOSAT 7-2,2019-036N,2026-07-17T11:53:37.100256,14.96614279,.0000613,23.9986,304.4702,149.3256,210.7280,0,U,44351,999,38813,.89426E-4,.1347E-4,0
